CÓDIGO,NOMBRE,NIT,RAZÓN SOCIAL,NIVEL DE ATENCIÓN,GERENTE,DIRECCION,BARRIO,MUNICIPIO,DEPARTAMENTO,TELEFONO,E-MAIL EMPRESARIAL,E-MAIL 2 EMPRESARIAL,NOMBRE DEL REPRESENTANTE LEGAL,E-MAIL REPRESENTANTE LEGAL,E-MAIL REPRESENTANTE LEGAL,TELEFONO REPRESENTANTE LEGAL,NOMBRE PERSONA ENCARGADA DE TECNOLOGIA,EMAIL PERSONA ENCARGADA DE TECNOLOGIA,TELEFONO PERSONA ENCARGADA DE TECNOLOGIA
2575400380,E.S.E. HOSPITAL MARIO GAITAN YANGUAS DE SOACHA,800006850,E.S.E. HOSPITAL MARIO GAITAN YANGUAS DE SOACHA,1,Fernando Anibal Peña Diaz,CALLE 13 # 10-48,EUGENIO DIAZ CASTRO,SOACHA,CUNDINAMARCA,7309230,hsoacha@cundinamarca.gov.co,,LUIS EFRAIN FERNANDEZ OTALORA,gerencia@hmgy.gov.co,,7309230 EXT 2001,FERNANDO RODRIGUEZ,planeacionymercadeo@hmgy.gov.co,7309230 EXT 2020
566404481,ESE HOSPITAL SANTA ISABEL,800014405,ESE HOSPITAL SANTA ISABEL,1,HARLYN DARIO DAVID URREGO,CALLE 43 A # 52A-109,GUAMURU,SAN PEDRO,ANTIOQUIA,8687610,hospital@esesantaisabel.gov.co,,OSCAR HERNAN OCAMPO VALENCIA,hospital@esesantaisabel.gov.co,,8687610,RAFAEL ARIAS,sistemas@ssantaisabel.gov.com,8687610
589303227,ESE HOSPITAL HÉCTOR ABAD GÓMEZ,800014884,ESE Hospital Héctor Abad Gómez,1,ALVARO RIVERA ROJAS,CARRERA 58 # 46-226,JOSE DOMINGO OLIVEROS,YONDÓ,ANTIOQUIA,8325050-8325051,esehectorabadgomez@hospitalyondo.gov.co,,CESAR AUGUSTO PARDO ROSAS,cpardorosas@gmail.com,,3108290215,PEDRO FLOREZ,sistemas@hospitlayondo.gov.co,3134868634
7302401044,E.S.E. HOSPITAL SAN ISIDRO,800025221,E.S.E. HOSPITAL SAN ISIDRO,1,HENRRY ANTONIO COBO BRITO,CARRERA 5 # 5-43,CENTRO,ALPUJARRA,TOLIMA,2261172-3212011134,esesanisidroalpujarra@hotmail.com,,ALFONSO CRUZ ACOSTA,esesanisidroalpujarra@hotmail.com,,2261172,ALFONSO CRUZ ACOSTA,esesanisidroalpujarra@hotmail.com,2261172
502105098,ESE HOSPITAL PBRO LUIS FELIPE ARBELAEZ,800029509,ESE HOSPITAL PBRO LUIS FELIPE ARBELAEZ,1,EDUARDO RIVERA ARCILA,CARRERA 19 # 16-70,,ALEJANDRÍA,ANTIOQUIA,8660077,hospitalalejandria@gmail.com,,OSCAR DARIO RESTREPO BRAVO ,hospitalalejandria@gmail.com,,8660077,OSCAR DARIO RESTREPO BRAVO ,hospitalalejandria@gmail.com,8660077
5031300522,HOSPITAL DEPARTAMENTAL DE GRANADA - EMPRESA SOCIAL DEL META,800037021,Hospital Departamental de Granada - Empresa Social del Meta,2,JESUS EMILIO ROSADO SARABIA,CALLE 15 ENTRE 2 y 4,VILLA OLIMPICA,GRANADA,META,6587800,gerencia@hospitalgranada.gov.co,,MONICA MARIA DELGADO,gerencia@hospitalgranada.gov.co,,6587800,FERNANDO BARRETO,ingsistemas@hospitalgranada.gov.co,6587800 EXT 138
5031800018,HOSPITAL LOCAL DE GUAMAL PRIMER NIVEL E.S.E.,800037202,HOSPITAL PRIMER NIVEL DE GUAMAL,1,OSCAR ALBERTO SANCHEZ MUÑOZ,CARRERA 7 # 14 28 ,LOS FUNDADORES,GUAMAL,META,6755038-6755767,GERENCIA@HOSPITALGUAMAL.GOV.CO,,JAIRO ANDRES MUÑOZ VISCAINO ,GERENCIA@HOSPITALGUAMAL.GOV.CO,,3138147214,DEIVI PARDO ,SOPORTE@HOSPITALGUAMAL.GOV.CO,3214399570
512508313,E.S.E. HOSPITAL GUILLERMO GAVIRIA CORREA,800037244,E.S.E. HOSPITAL GUILLERMO GAVIRIA CORREA,1,CARDONA ORTIZ ELKIN DE JESUS,CARRERA 5 # 3-23,ZONA URBANA,CAICEDO,ANTIOQUIA,8572123,,,CARLOS ANDRES LONDOÑO VELEZ,gerencia@hospitalcaicedo.gov.co,,8572123 EXT 120,ANDRES JHOAN GUTIERREZ,gerencia@hospitalcaicedo.gov.co,8572123 EXT11
5057300003,HOSPITAL LOCAL DE PUERTO LOPEZ ESE,800037979,E.S.E. HOSPITAL LOCAL DE PUERTO LOPEZ,1,FERNANDO MEDINA GRANADOS,CALLE 8 No. 6-50 ,BARRIO GAITAN PUERTO LÓPEZ META,PUERTO LÓPEZ,META,6450955,gerente@esehospitalocal-puertolopez-meta.gov.co,,ALVARO HERNANDO PINILLA LEON,gerente@esehospitalocal-puertolopez-meta.gov.co,,6450955,RANDY FRANCISCO ORTIZ DIAZ,gerente@esehospitalocal-puertolopez-meta.gov.co,6450955
6865500734,E.S.E. HOSPITAL INTEGRADO SABANA DE TORRES,800064543,E.S.E. HOSPITAL INTEGRADO SABANA DE TORRES,1,BALKIS YAMILE GORDILLO MORENO,CALLE 14 # 9-50,CARVAJAL,SABANA DE TORRES,SANTANDER,6293347-6293346,HOSPITALST@HOTMAIL.COM,,YENNY CAROLINA GALVAN PLATA,HOSPITALST@HOTMAIL.COM,,6293346,ARIEL ALFONSO ANGARITA LEON,AAAL79@HOTMAIL.COM,3175038688
584206431,EMPRESA SOCIAL DEL ESTADO HOSPITAL TOBIAS PUERTA,800065395,EMPRESA SOCIAL DEL ESTADO HOSPITAL TOBIAS PUERTA,1,JOSE GILDARDO CHICA MONTOYA,CALLE 20 # 22 170 ,EL TOTUMO,URAMITA,ANTIOQUIA,8574048,uramhs01@edatel.net.co,,MARIA CONSUELO DIAZ PUERTA ,uramhs01@edatel.net.co,,3146011126,MARIA CONSUELO DIAZ PUERTA ,uramhs01@edatel.net.co,3146011126
4487400347,EMPRESA SOCIAL DEL ESTADO HOSPITAL SANTO TOMAS,800075650,EMPRESA SOCIAL DEL ESTADO HOSPITAL SANTO TOMAS,1,HAROLD ZAMBRANO PINTO,CALLE 14 # 13-27,LAS DELICIAS,VILLANUEVA,LA GUAJIRA,7772051-3174377864,HOSTOMAS@HOTMAIL.COM,,DARIO FABRICIO JOSE MARTINEZ FERREIRA,HOSTOMAS@HOTMAIL.COM,,3174377864,ZAVIER BAQUERO,ZABADA15@HOTMAIL.COM,3174377864
585806294,ESE HOSPITAL SAN CAMILO DE LELIS,800114286,E.S.E. HOSPITAL SAN CAMILO DE LELIS,1,DORIS AIDA RESTREPO GONZALEZ,CALLE 49 # 40-209,ANTIOQUIA,VEGACHÍ,ANTIOQUIA,8305122-8305698-8305474,COMUNICACIONESHSCL@GMAIL.COM,,LUIS HERNAN SANCHEZ MONTOYA,GERENCIAHOSPITALVEGACHI@GMAIL.COM,,8305122 EXT 104,LUIS GUILLERMO VALENCIA GOMEZ,SISTEMASHOPITALVEGACHI@GMAIL.COM,8305122 EXT 117
7340800729,HOSPITAL ESPECIALIZADO GRANJA INTEGRAL E.S.E LERIDA TOLIMA,800116719,HOSPITAL ESPECIALIZADO GRANJA INTEGRAL E.S.E LERIDA TOLIMA,2,,KILOMETRO 1 VIA EL IGUASITO ,,LÉRIDA,TOLIMA,3107685086-2890803-2890526,ventanillaunica@psiquiatricocali.gov.co,,CLAUDIA AMPARO MEDINA SALAZAR,gerencia@hegranjalerida.org,,2890526 EXT 108,MARTHA LUCIA PEÑA MOYA,sistemas@hegranjalerida.org,2890526 EXT 132
5200100441,UNIVERSIDAD DE NARIÑO,800118954,UNIVERSIDAD DE NARIÑO,0,,CALLE 18 # 50 - 2,CIUDAD UNIVERSITARIA RTOROBAJO,PASTO,NARIÑO,7311449,edithgaviria@udenar.edu.co,,CARLOS OLARTE,rectoria@udenar.edu.co,,7313604,IGNACIO ERAZO,rectoria@udenar.edu.co,7315480
2023800531,HOSPITAL SAN ROQUE ESE,800119945,HOSPITAL SAN ROQUE ESE,1,,CALLE 10 # 23-37,SAN CARLOS,EL COPEY,CESAR,5255896,gerencia@hosanroque.gov.co,,YAJAIRA CENITH SAN JUAN RIOS,gerencia@hosanroque.gov.co,,5255896,FRED ALBERTO SILVA SIERRA,sistemas@hosanroque.gov.co,3002604827
6868400738,ESE HOSPITAL NUESTRA SEÑORA DE LOS REMEDIOS,800125276,ESE HOSPITAL NUESTRA SEÑORA DE LOS REMEDIOS,1,,CALLE 5 # 5-08,CENTRO,SAN JOSÉ DE MIRANDA,SANTANDER,6626006,hospitalmiranda@gmail.com,,JORGE ARMANDO TARAZONA,hospitalmiranda@gmail.com,,3204371777,BENJAMIN SUAREZ,hospitalmiranda@gmail.com,6626006
565206016,ESE HOSPITAL SAN FRANCISCO DE ASIS,800133887,EMPRESA SOCIAL DEL ESTADO HOSPITAL SAN FRANCISCO DE ASIS,1,James Brauer Escobar Gómez,CARRERA 10 # 9-09,N/A,SAN FRANCISCO,ANTIOQUIA,8323136-8323027,sfrahs01@edatel.net.co,,ELIZABETH SUAREZ GARCIA,sfrahs01@edatel.net.co,,8323136-8323027,DIOSER SALAZAR ,ADRILUDIOS@GMAIL.COM,3233639065
6369000502,ESE HOSPITALSAN VICENTE DE PAUL,800134339,ESE HOSPITALSAN VICENTE DE PAUL,1,BEATRIZ ELENA OCAMPO LONDOÑO,CARRERA 7 # 6-60,CENTRO,SALENTO,QUINDÍO,7593000,hospitalsalento@gmail.com,,DIANA PATRICIA MARTINEZ LOAIZA,hospitalsalento@gmail.com,,7593000,DIANA PATRICIA MARTINEZ LOAIZA,hospitalsalento@gmail.com,7593000
538005016,EMPRESA SOCIAL DEL ESTADO HOSPITAL LA ESTRELLA,800138968,EMPRESA SOCIAL DEL ESTADO HOSPITAL LA ESTRELLA,1,MARTIN ALONSO MORA RENDON,CALLE 80 SUR # 53-89,PUEBLO VIEJO,LA ESTRELLA,ANTIOQUIA,3021010,infohospital@eselaestrella.gov.co,,CAMILO ALFONSO GONZALEZ,sistemas@eselaestrella.gov.co,,3021010,MARGARITA SANCHEZ,sistemas@eselaestrella.gov.co,3021010
7610901750,HOSPITAL SAN AGUSTIN EMPRESA SOCIAL DEL ESTADO,800155000,HOSPITAL SAN AGUSTIN EMPRESA SOCIAL DEL ESTADO,1,ABEL DARIO MARIN GALVIS,CORREGIMIENTO DE PUERTO MERIZALDE  CALLE 5 10-38 PISO 3,,BUENAVENTURA,VALLE DEL CAUCA,3155565758-3155565753,gerencia@hospitalsanagustin.gov.co,,WILLIAN VALENCIA,wivalencia_2415@hotmail.com,,3155565758-3155565753,DALMIRO SAA ,hosanamerizalde@hotmail.com,3155565758-3155565753
7637701768,HOSPITAL SANTA MARGARITA ESE,800160400,E.S.E. HOSPITAL SANTA MARGARITA,1,OLGA LUCIA AGUILAR VALENCIA,CARRERA 7 # 5-24,SANTA MARGARITA,LA CUMBRE,VALLE DEL CAUCA,2459200-3122867934,hospitalsantamargarita@hotmail.com,,MAURICIO ROJAS,gerencia@hospitalsantamargarita.gov.co,,3113442300,DANIEL ISAAC BARRIOS PINO,danielbarrios@live.com,5573055
7304301056,HOSPITAL SAN JUAN DE DIOS EMPRESA SOCIAL DEL ESTADO DEL MUNICIPIO DE ANZOATEGUI,800163519,HOSPITAL SAN JUAN DE DIOS EMPRESA SOCIAL DEL ESTADO DEL MUNICIPIO DE ANZOATEGUI,1,WILLIAM ARMANDO CASTILLA RUEDA,CARRERA 2 CALLE 5 ESQUINA,3 ESQUINAS,ANZOÁTEGUI,TOLIMA,2810200-2810152,hospianzoategui043@gmail.com,,JAIME EDUARDO RODRIGUEZ GIL,jaiedro@yahoo.es,,3219964077,GLORIA CONSUELO MONTES FAJARDO,gcmontes01@hotmail.com,3143917267
508804909,EMPRESA SOCIAL DEL ESTADO BELLO SALUD,800174995,EMPRESA SOCIAL DEL ESTADO BELLO SALUD,1,,CALLE 54 # 56A-11  ,ROSALPI,BELLO,ANTIOQUIA,4547860,gestiondocumental@esebellosalud.gov.co,,JAVIER ALEJANDRO BEDOYA TORO,gerencia@esebellosalud.gov.co,,4547860 ext 102,ALEXANDER PIHEDRAITA,lidersuministros@esebellosalud.gov.co,
530604477,ESE HOSPITAL SAN ISIDRO,800193392,E.S.E. HOSPITAL SAN ISIDRO,1,GUSTAVO ADOLFOESPINOSA YEPES,CARRERA 10 # 11-05,,GIRALDO,ANTIOQUIA,8571325,ESEHOSPITALSANISIDRO@GMAIL.COM,,ALINA MARIA RIOS PALACIOS,ESEHOSPITALSANISIDRO@GMAIL.COM,,8571325,,,8571325
6805100703,E.S.E. HOSPITAL JUAN PABLO II ARATOCA,800193904,E.S.E. HOSPITAL JUAN PABLO II ARATOCA,1,MARIO ENRIQUE ARCE POSADA,AVENIDA EL RAMAL,,ARATOCA,SANTANDER,7266514,hospiaratoca@gmail.com,,LAURA ISABEL ESPAÑA MORENO ,hospiaratoca@gmail.com,,7266514,LUIS CARLOS RICO ,hospiaratoca@gmail.com,7266514
6814700710,ESE HOSPITAL SAN BARTOLOME DEL MUNICIPIO DE CAPITANEJO,800194328,ESE HOSPITAL SAN BARTOLOME DE CAPITANEJO,1,DARIO ELVIS CAMACHO NORIEGA,CARRERA 4 # 1- 05,LIBERTADORES,CAPITANEJO,SANTANDER,6600382 EXT 117,HOSPITALBARTOLOME@HOTMAIL.COM,,SONIA CASTELLANO CASTRO ,HOSPITALBARTOLOME@HOTMAIL.COM,,311881792,BENJAMIN SUAREZ RODRIUEZ,HOSPITALBARTOLOME@HOTMAIL.COM,3142984596
6809200708,ESE HOSPITAL SAN JUAN DE DIOS DE BETULIA,800212070,ESE Hospital San Juan de Dios de Betulia,1,OSCAR LEONARDO RONDON GALVIS,CALLE 11 CARRERA 6 ESQUINA,SAGRADO CORAZON ,BETULIA,SANTANDER,6259337 - 6259227,hospitalbetulia@gmail.com,,LISED TATIANA MARTINEZ MORENO,hospitalbetulia@gmail.com,,6259337,OSCAR JOSUE MELO SANABRIA,hospitalbetulia@gmail.com,6259337-3102080633
4485500391,ESE HOSPITAL SANTA CRUZ DE URAMITA,800213942,E.S.E. HOSPITAL SANTA CRUZ,1,CAMPO ELIAS LOPEZ TORRES,CARRERA 9 # 8-16 ,CENTRO,URUMITA,LA GUAJIRA,7778098-7778000,hosacruz@hotmail.com  ,hospital-santacruz12@hotmail.com,YADIRA BEATRIZ TABARES RODRIGUEZ,yabetar@hotmail.com,,3183213969,GERMAN BELLO,hosacruz@hotmail.com ,3008758385
1100102654,EMPRESA SOCIAL DEL ESTADO CENTRO DERMATOLOGICO FEDERICO LLERAS ACOSTA,800247350,EMPRESA SOCIAL DEL ESTADO CENTRO DERMATOLOGICO FEDERICO LLERAS ACOSTA,3,,AVENIDA 1 # 13A-61,SEVILLA,BOGOTÁ,CUNDINAMARCA,3779506 2428160,sec.direccion@dermatologia.gov.co,,CLAUDIA MARCELA ROJAS DAZA,direccion@dermatologia.gov.co,,3779506,JUAN CARLOS VASQUEZ,informatica@dermatologia.gov.co,
1548000506,EMPRESA SOCIAL DEL ESTADO HOSPITAL SANTA ANA,800254850,EMPRESA SOCIAL DEL ESTADO HOSPITAL SANTA ANA,1,JESUS ERNESTO RAMIREZ AMAYA,CARRERA 6 # 7-80,SANTA ANA ,MUZO,BOYACÁ,987256060,esehospitalsantaana@yahoo.com,,LUIS HERNANDO SALAZAR MANRRIQUE ,esehospitalsantaana@yahoo.com,,3124576731,,,
6300100460,REDSALUD ARMENIA ESE,801001440,RED SALUD ARMENIA ESE UNIDAD INTERMEDIA DEL SUR,1,HERNANDO BEDOYA CASTAÑO,AVENIDA MONTECARLO URBANIZACION GUADUALES DE LA VILLA,GUADALES DE LA VILLA,ARMENIA,QUINDÍO,7371010,GERENCIA@REDSALUDARMENIA.GOV.CO,,MAGDA LUCIA CARVAJAL IRIARTE,GERENCIA@REDSALUDARMENIA.GOV.CO,,7371010 EXT 132,NESTOR IVAN VELOZ,SISTEMAS@REDSALUDARMENIA.GOV.CO,7371010 EXT 127
854900461,HOSPITAL VERA JUDITH IMITOLA VLLANUEVA E.S.E,802007650,HOSPITAL VERA JUDITH IMITOLA VLLANUEVA E.S.E,1,JESUS ANTONIO AREVALO RODRIGUEZ,CALLE 5 # 2 - 05,LAS PIÑUELAS ,PIOJÓ,ATLÁNTICO,3008998792,HOSPITALPIOJO@HOTMAIL.COM,,SONIA VILLANUEVA,SONYMAR11@HOTMAIL.COM ,,3006538579,CARLOS RODRIGUEZ,CERODRIGUEZ2007@HOTMAIL.COM,3167842247
884900119,ESE CENTRO DE SALUD USIACURI JOSE MARIA FEREZ FARAH,802009049,ESE CENTRO DE SALUD USIACURI JOSE MARIA FEREZ FARAH,1,,CARRERA 22 # 8C-47,LA FLORESTA,USIACURÍ,ATLÁNTICO,3205470900,HOSPITALUSIACURI@GMAIL.COM,,PEDRO DE JESUS VILLA PAYARE,LARESERVAPEDRO@HOTMAIL.COM,,3205470900,ALFREDO MARQUES,ALFREDOJOSE.13059@GMAIL.COM,3046574823
883200149,ESE CENTRO DE SALUD DE TUBARÁ,802009463,ESE CENTRO DE SALUD DE TUBARÁ,1,,CALLE 2 # 10-60,EL CENTRO,TUBARÁ,ATLÁNTICO,8737031,esecentrodesaluddetubara@hotmail.com  , urgencias.efe@hotmail.com,LUIS GERMAN PACHECO,esecentrodesaluddetubara@hotmail.com/,urgencias.efe@hotmail.com,8737031,ALEX GERONIMO FEJERA,esecentrodesaluddetubara@hotmail.com   urgencias.efe@hotmail.com,8737031
6810100709,EMPRESA SOCIAL DEL ESTADO HOSPITAL LOCAL DE BOLIVAR,804003072,EMPRESA SOCIAL DEL ESTADO HOSPITAL LOCAL DE BOLIVAR,1,GERMAN EDUARDO MARIN CARDENAS,CARRERA 3 # 3-194,LOS GUADUALES,BOLÍVAR,SANTANDER,7569019,hlocalbolivar@yahoo.es,,OLGA LETICIA MEDINA REMOLINA,hlocalbolivar@yahoo.es,,7569019,VICTOR PICO VELAZCO,hlocalbolivar@yahoo.es,7569019
6825500750,E.S.E. HOSPITAL SANTO DOMINGO SAVIO,804005555,E.S.E. HOSPITAL SANTO DOMINGO SAVIO,1,Lenny Paola Tolosa Diaz,CARRERA  5 # 13-34,CENTRO ,EL PLAYÓN,SANTANDER,3183437328 - 3167585574,esesantodomingosavio@gmail.com,,ROSA NATALIA CORREA GEBARA,esesantodomingosavio@gmail.com,,3183437328 - 3167585574,ROSA NATALIA CORREA GEBARA,esesantodomingosavio@gmail.com,3183437328 - 3167585574
6878000747,EMPRESA SOCIAL DEL ESTADO HOSPITAL SAN SEBASTIAN SURATA,804005751,EMPRESA SOCIAL DEL ESTADO HOSPITAL SAN SEBASTIAN SURATA,1,JAVIER ALONSO VILLAMIZAR SUAREZ,CARRERA 4 #. 1-06,EL PORTAL,SURATÁ,SANTANDER,3163933276,RAM112098@HOTMAIL.COM,,RICARDO ARMADO MENDONA  ,SANSEBASTIASURATA@GMAIL.COM,,3163933276,,,
6886700773,E.S.E CENTRO DE SALUD NUESTRA SEÑORA DEL CARMEN,804007078,E.S.E CENTRO DE SALUD NUESTRA SEÑORA DEL CARMEN,1,,KM 1 VIA AL VOLCAN MUNICIPIO DE VETAS,SECTOR SAN ANTONIO ,VETAS,SANTANDER,3214534948-3134671352,esevetas@gmail.com,,MAGDA LORENA VARGAS CONTRERAS ,gerenciaesevetas@gmail.com,,,MAGDA LORENA VARGAS CONTRERAS ,gerenciaesevetas@gmail.com,
6824500755,ESE CENTRO DE SALUD JUAN SOLERI,804007611,ESE CENTRO DE SALUD JUAN SOLERI,1,FARLEY YADIRA MOGOLLON CASTELLANOS,CALLE 6 # 3-13,CENTRO,EL GUACAMAYO,SANTANDER,3138501609,esejusoleri06@hotmail.com,,YENI PAOLA MEDINA,gerenciajsoleri2016@gmail.com,,3138501609,YOHANI VARGAS,esejusoleri06@hotmail.com,3138501609
6832200784,ESE SAN CAYETANO DE GUAPOTA,804007868,ESE SAN CAYETANO DE GUAPOTA,1,ANA MILENA GAONA ZAMBRANO,CALLE 2 # 1 - 55,,GUAPOTÁ,SANTANDER,2803092,esesancalletanoguapota@gamil.com,,YESICA TATIANA ARENAS DIAZ ,tatianarenasdiaz@gmail.com,,3204912600,LUZ MARINA AGUILAR RUGELES ,esesancalletanoguapota@gamil.com,3204312600
6870500788,ESE CENTRO DE SALUD SANTA BARBARA,804008273,ESE CENTRO DE SALUD SANTA BARBARA,1,,CARRERA 3 # 4-98,CENTRO,SANTA BÁRBARA,SANTANDER,3143340186-3143341399,e.s.esantabarbara@hotmail.com,,MARIA TERESA ORTIZ,mariatortiz08@gmail.com,,3143341399-3143340186,,,
6827100775,EMPRESA SOCIAL DEL ESTADO SAN JOSE DE FLORIAN,804008698,EMPRESA SOCIAL DEL ESTADO SAN JOSE DE FLORIAN,1,,CALLE 4 No. 3-06,CENTRO,FLORIÁN,SANTANDER,3114753347,YEPAPESA@GMAIL.COM,,YENY PAOLA PEÑA SANDIÑO, yepapesa@gmail.com,,3202693274,ALEXANDER LEON,alexanderleonm3@gmail.com,3197644274
6877300768,CENTRO DE SALUD SABANA GRANDE,804008746,EMPRESA SOCIAL DEL ESTADO CENTRO DE SALUD SUCRE,1,,,CENTRO,SUCRE,SANTANDER,3208466950 3203030628,hospitalsucre@hotmail.com,,JENNY ZULAY PINTO TOVAR,hospitalsucre@hotmail.com,,3124018692,RICARDO HERREÑO,hospitalsucre@hotmail.com,
6877300768,EMPRESA SOCIAL DEL ESTADO CENTRO DE SALUD SUCRE,804008746,EMPRESA SOCIAL DEL ESTADO CENTRO DE SALUD SUCRE,1,,CARRERA 4 CON CALLE 7,CENTRO,SUCRE,SANTANDER,3208466950 3203030628,hospitalsucre@hotmail.com,,JENNY ZULAY PINTO TOVAR,hospitalsucre@hotmail.com,,3124018692,RICARDO HERREÑO,hospitalsucre@hotmail.com,
6837700787,EMPRESA SOCIAL DEL ESTADO HOSPITAL SAN MARTIN,804008770,Empresa Social Del Estado Hospital San Martin,1,,CALLE 6 # 6-58,SAN FERNANDO ,LA BELLEZA,SANTANDER,7569849,hosp_sanmatir@hotmail.com,,JOSE LUIS MEDINA ROMERO ,j_lmedirom@hotmail.com,,3213086592,SERGIO ORLANDO MARIN ARIZA,serviv1@hotmail.com,3147142327
6816200748,EMPRESA SOCIAL DEL ESTADO HOSPITAL SAN ANTONIO CERRITO,804013228,EMPRESA SOCIAL DEL ESTADO HOSPITAL SAN ANTONIO CERRITO,1,CARLOS ALBERTO ROMERO RAMIREZ,CALLE 6 # 5-30,SANTANDER ,CERRITO,SANTANDER,6602025 - 6602241,ese.hospitalcerrito@hotmail.com, ips_sanantonio@hotmail.com,SILVIA MARIBEL VARGAS CARVAJAL,ese.hospitalcerrito@hotmail.com, ips_sanantonio@hotmail.com,6602025 - 6602241,,,
6812100759,ESE CENTRO DE SALUD SAN PEDRO DE CABRERA,804014637,ESE CENTRO DE SALUD SAN PEDRO DE CABRERA,1,Óscar René Rangel Urrea,Calle 8 # 7-29,CABRERA,CABRERA,SANTANDER,3102951446-3112743047,esesanpedrocabrera@hotmail.com,,VELSI MALENA EGALADO MAVILLA,esesanpedrocabrera@hotmail.com,,3102951446,DARIO DIAZ,esesanpedrocabrera@hotmail.com,3102951446-3112743047
6826400754,E.S.E CENTRO DE SALUD ENCINO,804015007,E.S.E CENTRO DE SALUD ENCINO,1,,CARERRA 4 # 5 - 65,CENTRO,ENCINO,SANTANDER,3213725415,ESEENCINO@GMAIL.COM,,CARLOS IVAN GELVEZ,KNCONTADURIA@HOTMAIL.COM,,3006602166,PATRICIA MENDEZ DIA ,ESEENCINOGERENCIA@GMAIL.COM,3213725301
6854900770,ESE SAN ANTONIO DE PADUA DEL MUNICIPIO DE PINCHOTE,804015047,ESE SAN ANTONIO DE PADUA DEL MUNICIPIO DE PINCHOTE,1,LYDA XIOMARA GONZALEZ FERREIRA,CALLE 6 # 4-03,CENTRO,PINCHOTE,SANTANDER,7247197,gerencia@esehospitalpinchote.gov.co,,ERIKA JHOHANNA MACIAS ,esepinchotegerencia@gmail.com,,7247197 EXT 106,OSCAR MAURICIO  GOMEZ ,ofmago015@hotmail.com,3016389899
6849800761,EMPRESA SOCIAL DEL ESTADO DE OCAMONTE SANTANDER,804015127,Empresa Social del Estado de Ocamonte Santander,1,,CARRERA  3 CON CALLE 1 ESQ,MOSERRATE ,OCAMONTE,SANTANDER,7247545-3114751649,eseocamonte@gmail.com,,KATERINE PIDONIETA LOPEZ ,eseocamonte@gmail.com,,eseocamonte@gmail.com,MARIA DE  JESUS CALA RIOS ,eseocamonte@gmail.com,
6816000776,Empresa Social del Estado Cepita,804015655,Empresa Social del Estado Cepita,1,,CALLE 3 # 5-60,ENTRADA AL MUNICIPIO,CEPITÁ,SANTANDER,3118986984,esecepita@yahoo.es,,LUZ KAROL MARTINEZ, nihekakarol@hotmail.com,,3114563121,LUZ KAROL MARTINEZ, nihekakarol@hotmail.com,3114563121
6817900766,ESE DIVINO NIÑO JESUS,804016288,ESE DIVINO NIÑO JESUS,1,OSCAR ALBERTO GONZALEZ PEDRAZA,CALLE 3 # 6-20,EL CENTRO,CHIPATÁ,SANTANDER,3123357859,cesal68179@yahoo.es,,JACKELINE ARIZA PARDO,cesal68179@yahoo.es,,3123357859,JOSE GUILLERMO ARIZA,cesal68179@yahoo.es,3123357859
6823500749,E.S.E. HOSPITAL EL CARMEN,804016365,E.S.E. HOSPITAL EL CARMEN,1,TERRY ALEXANDER NIEVES CEPEDA,CARRERA 3 # 8-15,EL BOSQUE,EL CARMEN DE CHUCURÍ,SANTANDER,6140584-6140665,GERENCIA@ESEHOSPITALELCARMEN-SANTANDER.GOV.CO,,MARTHA CALA,GERENCIA@ESEHOSPITALELCARMEN-SANTANDER.GOV.CO,,6140584 EXT 102,JOSE DARIO MORENO,DARIO.MG2016@GMAIL.COM,6140584 EXT 101
6826600764,ESE HOSPITAL DE ENCISO,804017570,ESE HOSPITAL DE ENCISO,1,,CARERA 5 # 4-56,CENTRO,ENCISO,SANTANDER,6633012,ESEHOSPITALDEENCISO@GMAIL.COM,,NOHORA LYCETH LOPEZ IBAÑEZ,ESEHOSPITALDEENCISO@GMAIL.COM,,6633012,JASMIN DUARTE ALNDINO,JASMINDULAN@HOTMAIL.COM,3202815389
7600105115,HOSPITAL ISAIAS DUARTE CANCINO EMPRESA SOCIAL DEL ESTADO,805028530,HOSPITAL ISAIAS DUARTE CANCINO EMPRESA SOCIAL DEL ESTADO,2,ALEJANDRO VARELA VILLEGAS,CALLE 96 # 28-E3 - 01,MOJICA 2,CALI,VALLE DEL CAUCA,4140707,gerencia@hidc.gov.co,,SANDRA LILIANA VELASQUEZ,gerencia@hidc.gov.co,,4140707 EXT 133,RICHARD JAUEREGUI  ,sistemas@hidc.gov.co,4140707 EXT 108
1365700119,ESE HOSPITAL LOCAL SAN JUAN NEPOMUCENO,806006414,E.S.E. HOSPITAL LOCAL SAN JUAN NEPOMUCENO,1,REINEL ANTONIO CASTRO MUÑOZ,CALLE 12# 8-68,FRONTERAS,SAN JUAN NEPOMUCENO,BOLÍVAR,6890516-3135744002 ,sanjuanhospital@hotmail.com,,LUIS DUARDO MAZUT,sanjuanhospital@hotmail.com,,6890516-3135744002 ,LUIS ROMERO GAZABON,sanjuanhospital@hotmail.com,6890516-3135744002 
1307400031,ESE HOSPITAL JOSE RUDECINDO LOPEZ PARODI,806006753,E.S.E. HOSPITAL JOSE RUDECINDO LOPEZ PARODI,1,Margarita Salcedo Correa,PUEBLO NUEVO,PUEBLO NUEVO,BARRANCO DE LOBA,BOLÍVAR,3106371253 - 3106370214,hospital01barrancodeloba@hotmail.com,,ERIKA IBETH COSIO MORENO,ericacossiomoreno@hotmail.com,,3106371253 - 3106370214,ALEXIS DEL CARMEN OJEDA,hospital01barrancodeloba@hotmail.com,3208779629
1389400026,ESE HOSPITAL LOCAL SAN SEBASTIAN,806006914,E.S.E. HOSPITAL LOCAL SAN SEBASTIAN DE ZAMBRANO,1,ESMERALDA MATILDE BALLESTAS LARIOS,CARRERA 17 # 2-32 ESQUINA,MANTEQUILA,ZAMBRANO,BOLÍVAR,3002833325-3153143058 ,rennyb20@hotmail.com,esedocumentos@hotmail.com,RENNY DE JESUS VARANDICA MANOTAS ,rennyb20@hotmail.com,,3153143058,ALFREDO DEL JAX ,alfcomunicaciones26@hotmail.com,3022836569
1347300231,ESE HOSPITAL SAN SEBASTIAN,806007002,ese hospital san sebastian,1,ALVARO CAÑAS QUINTERO,KM 1 VIA A MORALES - PUERTO BOLIVAR ,,MORALES,BOLÍVAR,3114162680,hospitalsansebastianmoralesbol@gmail.com,,DOMICIANO DITTA SERPA,domiciano79@yahoo.es,,3114162680,VICTOR CHAVES,chaves.19@hotmail.com,3008031430
1318800295,ESE HOSPITAL LOCAL DE CICUCO,806007161,ESE HOSPITAL LOCAL DE CICUCO,1,LENIS HERRERA CASTRO,CALLE 17 # 14-69 ,20 DE JULIO,CICUCO,BOLÍVAR,3042462956-3006566414,ESELOCALCICUCOBOLIVAR@HOTMAIL.COM,,KAREN MARRUGO POLO,KARMA_1981@HOTMAIL.COM,,3042462956,MARTIN BASTIDA,JOTYDB2000@HOTMAIL.COM,3005466903
1365400160,E.S.E. HOSPITAL LOCAL SAN JACINTO,806007303,E.S.E. DEL ESTADO HOSPITAL LOCAL DEL MUNICIPIO DE SAN JACINTO BOLIVAR,1,NESTOR CARLOS RODRIGUEZ GARCIA,CARRERA 40 # 15 - 33 ,LA GLORIA ,SAN JACINTO,BOLÍVAR,6868002,FACTURACCIONHOSPITALSANJACINTO@GMAIL.COM,,IVON TAPIA,IVONMARIADT@YAHOO.ES,,3017568570,YEISON SALINAS -JAIRO MENDOZA ,D/SALINAS@HOTMAIL.COM-JAIROJKD@HOTMAIL.COM,3013603400-3015298023
1378000062,ESE HOSPITAL LOCAL DE TALAIGUA,806007464,ESE HOSPITAL LOCAL DE TALAIGUA,1,,CARRERA 12 # 7-16,SANTA LUCIA ,TALAIGUA NUEVO,BOLÍVAR,3105251386,hospitalaiguanuevo@yahoo.com,yeila0411@hotmail.com,CHEYLA  ALVAREZ,cheila0411@hotmail.com,,3105251386,JORGE AMARY ,hospitalaiguanuevo@yahoo.com-yeila0411@hotmail.com,3105251386
1324400091,ESE CENTRO DE SALUD GIOVANI CRISTINI,806007801,E.S.E. CENTRO DE SALUD GIOVANI CRISTINI IPS MUNICIPAL,1,HERNANDO ANTONIO RICARDO TAPIA,CALLE 24 CARRERA 49 ESQUINA,LOS MANGOS,EL CARMEN DE BOLÍVAR,BOLÍVAR,3014358156,ESEHOSPITALGC@GMAIL.COM,,EFRAIN TAVARGAS TAVARGAS,ESEHOSPITALGC@GMAIL.COM,,3014358156,DEWIN LAMADRID,DEWINLAMADRID@GMAIL.COM,321566383
1304200268,ESE HOSPITAL LOCAL MANUELA PABUENA LOBO,806007809,E.S.E. HOSPITAL LOCAL MANUELA PABUENA LOBO,1,PETRONA HERRERA PIMIENTA,CALLE 15 # 14-21,ARENAL,ARENAL,BOLÍVAR,3106502456 - 3014461699,gerentehmpl@gmail.com,hmanuelapl@hotmail.com,YIRANA BARRIOS,gerentehmpl@gmail.com - hmanuelapl@hotmail.com,,3106502456,JHON ALBERTO FONSECA,gerentehmpl@gmail.com,3106504766
1343300100,E.S.E. HOSPITAL LOCAL MAHATES,806007880,E.S.E. HOSPITAL LOCAL MAHATES,1,LUZ REBECA GONZALEZ BUSTAMANTE,CALLE 18 # 41-10 ,SANTANDER,MAHATES,BOLÍVAR,3145472177-3185931694,jupasansan17@hotmail.com, HLMAHATES@OUTLOOK.COM,YULIETH SANTANDER SANTANDER,JUPASANSAN17@HOTMAIL.COM,,3185931694,ASTOLFO AGAME,ASTOLFO24@GMAIL.COM,3145472177
1368300232,ESE HOSPITAL LOCAL SANTA ROSA DE LIMA,806008270,ESE HOSPITAL LOCAL SANTA ROSA DE LIMA,1,PEDRO CLAVER QUINTERO LYONS,BARRIO REDENTOR VIA PRINCIPAL CALLE 16 # 40-12,BARRIO REDENTOR VIA PRINCIPAL,SANTA ROSA,BOLÍVAR,6297042 - 3116555662 - 3215418631,esehsantarosadelima@gmail.com,joegomezllamas@yahoo.es,JOSE MARIA GOMEZ LLAMAS ,joegomezllamas@yahoo.es,,3116555662,JOHANA BARRIIOS BELLIDO ,esehospital4505@gmail.com,3053375810
1345800222,ESE CENTRO DE SALUD CON CAMAS DE MONTECRISTO,806008930,ESE CENTRO DE SALUD CON CAMAS DE MONTECRISTO,1,RODRIGUEZ QUINTERO PABLO,CALLE PRINCIPAL SECTOR CENTRAL,CENTRO,MONTECRISTO,BOLÍVAR,3205537998,esemontecristobolivar@gmail.com, mariaeu_70@hotmail.com,MARIA EUGENIA LEMAN,esemontecristobolivar@gmail.com, mariaeu_70@hotmail.com,3205537998,OSCAR IVAN GUTIERREZ GOMEZ,OGUTIERREZG27@GMAIL.COM,314560689
1344200163,HOSPITAL LOCAL MARIA LA BAJA ESE,806010788,E.S.E. HOSPITAL LOCAL MARIALABAJA,1,LISBETH MARTINEZ GONZALEZ,CALLE 20 # 8-78,CHUMBU,MARÍA LA BAJA,BOLÍVAR,2621103-3145508090,esehlmbajagerencia@hotmail.com,,KAREN JOSEFA MEDINA SABALETA,kjmedina@hotmail.com,,3145504317,GIOVANY MESA SAN MARTIN,yugeo0531@hotmail.com,3017710672
1330000551,ESE HOSPITAL HATILLO DE LOBA,806013761,ESE HOSPITAL HATILLO DE LOBA,1,,CALLE 8 CARRERA 6 # 6-25,EL CARMEN,HATILLO DE LOBA,BOLÍVAR,3126926600-3126321690,esehatillodeloba@hotmail.com,,MAYLEN CURREA,maylencp@homail.com,,3126926600,,,
1365500312,ESE CENTRO DE SALUD CON CAMA,806014499,ESE CENTRO DE SALUD CON CAMA,1,WILLIAM JOSE HAWASLY JIMENEZ,CALLE 5 # 5-21,CENTRO,SAN JACINTO DEL CAUCA,BOLÍVAR,3117574653-3117182486-3145898445,ELENACHBAR@HOTMAIL.COM,,ELENA CHAVEZ,ELENACHBAR@HOTMAIL.COM,,3117574653,YOJAIRA LOPEZ,YLOPEZ_JESUS@HOTMAIL.COM,3145682559
5440501008,ESE HOSPITAL LOCAL MUNICIPIO LOS PATIOS,807004393,E.S.E. HOSPITAL LOCAL MUNICIPIO DE LOS PATIOS,1,ANDRES ELOY GALVIS JAIMES,CALLE 7 # 9-59,DANIEL JORDAN,LOS PATIOS,NORTE DE SANTANDER,5552170,asistente.gerencia@esehospitaldelospatios.gov.co,,SANDRA YOMARA GIRALDO PARRA,asistente.gerencia@esehospitaldelospatios.gov.co,,5552170 EXT 1116 - 1117,ALBERTO SERRANO,sistemas@esehospitaldelospatios.gov.co,5552170 EXT 1119
5400301020,EMPRESA SOCIAL DEL ESTADO HOSPITAL REGIONAL NOROCCIDENTAL,807008842,EMPRESA SOCIAL DEL ESTADO HOSPITAL REGIONAL NOROCCIDENTAL,1,MAGDA LILIANA BERMON ANGARITA,CALLE 20 # 3A ,SANTA BARBARA,ABREGO,NORTE DE SANTANDER,5642153-5642156-5642484-3115286223,hospital@esenoroccidental.gov.co,,IVAN DARIO SANTAELLA BEDOYA,hospital@esenoroccidental.gov.co,,3138724201,FREDY FRANCO,fred29773@hotmail.com,3156320459
7385400464,HOSPITAL LOCAL VITO FASAEL GUTIERREZ PEDRAZA E.S.E.,809000383,HOSPITAL LOCAL VITO FASAEL GUTIERREZ PEDRAZA E.S.E.,1,DIANA MARCELA ARTEAGA VERGARA,CALLE 4 #4-05,CENTRO ,VALLE DE SAN JUAN,TOLIMA,2885101,HOSPVITOFG@YOHOO.COM,,EGNA DEL ROSARIO PADILLA YATE,GERENCIA.HOSPITALVITOFASAEL@GMAIL.COM,,3212303846,ELIZABETH CABEZAS,GERENCIA.HOSPITALVITOFASAEL@GMAIL.COM,3133353312
7352001095,HOSPITAL RICARDO ACOSTA NIVEL I ESE,809004280,HOSPITAL RICARDO ACOSTA NIVEL I EMPRESA SOCIAL DEL ESTADO,1,EDILBERTO HERNANDEZ ROJAS,CALLE 5 # 9-50,CENTRO,PALOCABILDO,TOLIMA,3128740479, HOSPITALPALOCABILDOCLIENTES@YAHOO.COM,,CARLOS HERNANDEZ  LOPEZ,JUANC7819@GMAIL.COM,,3128740479,NESTOR ADRIAN RICO,NEADRIGO_52@HOTMAIL.COM,3204911044
7377000423,HOSPITAL SANTA ROSA DE LIMA E. S. E.,809005452,Hospital Santa Rosa de Lima E. S. E.,1,,CARRERA 3 # 2-08,CENTRO ,SUÁREZ,TOLIMA,2883185,hospsantarosa@hotmail.com,,AMPARO RAMIREZ LEGUIZAMON,amparo.ramirez@yahoo.es,,3202505387,LEANDRO ANTONIO CORDOBA FUERTE ,leandroantonioc@gmail.com,3152177627
7362400815,HOSPITAL SAN VICENTE E.S.E,809005719,HOSPITAL SAN VICENTE E.S.E,1,RAUL GERMAN RIOS GARCIA,CARRERA 7 CALLE 4 ESQUINA,SANTANDER,ROVIRA,TOLIMA,3212324367-2880077 EXT 126,hospital.sanvicente@hotmail.com,,EDWIN JOSE MOLANO OSPINA,edwinmol1@hotmail.com,,3212324367-2880077 EXT 126,ARGELIA OLAYA SANCHEZ,hospital.sanvicente@hotmail.com,3212324367-2880077 EXT 126
7300100855,THE WALA IPS INDÍGENA PÚBLICA COYAIMA ,809009550,THE WALA IPS INDIGENA PUBLICA,0,,CALLE 3  # 2-60,,COYAIMA,TOLIMA,2278047,THEWALA@GMAIL.COM THEWALAINDIGENAPUBLICA@HOTMAIL.COM,,MANUEL ANTONIO JULICUE ULL,MANUJULI16@HOTMAIL.COM,,3125879949,ANDRES MORA ,SISTEMAS.TWIPSI@GMAIL.COM,
7300100855,THE WALA IPS INDIGENA PUBLICA,809009550,THE WALA IPS INDIGENA PUBLICA,0,,CALLE 36 # 4D - 28 ,,IBAGUÉ,TOLIMA,2616096,THEWALA@GMAIL.COM,THEWALAINDIGENAPUBLICA@HOTMAIL.COM,MANUEL ANTONIO JULICUE ULL,MANUJULI16@HOTMAIL.COM,,3125879949,ANDRES MORA ,SISTEMAS.TWIPSI@GMAIL.COM,3208024029
1766500595,ESE HOSPITAL DEPARTAMENTAL SAN JOSE DE SAN JOSE,810001159,ESE HOSPITAL DEPARTAMENTAL SAN JOSE DE SAN JOSE,1,FERNANDO SALAZAR VILLEGAS,CARRERA 2 # 5-14,CALLE PRINCIPAL,SAN JOSÉ,CALDAS,8608684-3113165515,HOSAJO5@GMAIL.COM,,FERNANDO SALAZAR VILLEGAS,HOSAJO5@GMAIL.COM,,3113165516,MAURICIO GUTIERREZ,AMAGUVI@HOTMAIL.COM,3127374713
1744200161,ESE HOSPITAL DEPARTAMENTAL SAN ANTONIO DE MARMATO,810001392,ESE HOSPITAL DEPARTAMENTAL SAN ANTONIO DE MARMATO,1,HERMILSUN GAVIRIA CASTRILLON,CARRERA 2 DIAGONAL 3 CALLE 6,EL LLANO URBANIZACION LA BETULIA,MARMATO,CALDAS,0968598010 -8598240 - 3116117702 -3114198265 -3148643492,hospitalmarmato@gmail.com,,CRISTIAN ALEJANDRO PARRA ROJAS,crisalejo.0928@gmail.com,,3116117702,JUAN DAVID DIAZ SOTO,judadiso@gmail.com,3214401091
539005090,EMPRESA SOCIAL DEL ESTADO HOSPITAL ANTONIO ROLDAN BETANCUR,811013792,EMPRESA SOCIAL DEL ESTADO HOSPITAL ANTONIO ROLDAN BETANCUR,1,JUAN ENRIQUE MONTOYA URREA,CARRERA 30 # 30A-45,EL CRUCERO,LA PINTADA,ANTIOQUIA,8453108-8454063,HOSPITALHARBPINTADA@GMAIL.COM,,VIRGINIA ESPERANZA RENTERIA LEDEZMA,HARBGERENCIA@GMAIL.COM,,8454873,CARLOS HUMBERTO SALAZAR,CSALAZAR69@GMAIL.COM,8453108 EXT 11
2366000317,ESE CAMU SAN RAFAEL,812001579,ESE CAMU SAN RAFAEL,1,INGRITH JANIK PATERNINA SOLANO,CARRERA 14 # 2E-25,LAS MERCEDES,SAHAGÚN,CÓRDOBA,7589597,camusanrafael2@yahoo.es,,ZIDIA YEPEZ VERGARA,camusanrafael2@yahoo.es,,7589597,ANDRES RAMOS,aseramos17@hotmail.com,7589597
2316200381,ESE CAMU DEL PRADO,812002836,ESE CAMU DEL PRADO,1,ADMA TERESA MANZUR MARTINEZ,CALLE 27 CARRERA  9 /CALLE DEL CARMEN  # 15A-49,BARRIO EL PRADO,CERETÉ,CÓRDOBA,7642841,esecamuprado@yahoo.es,,GUARINA PINEDO DURANGO,esecamuprado@yahoo.es,,7642841,GUARINA PINEDO DURANGO,esecamuprado@yahoo.es,7642841
2358000773,ESE CAMU DIVINO NIÑO,812003382,ESE CAMU DIVINO NIÑO,1,JOSE FERNANDO LOPEZ SANTANA,CARRERA 9 # 17-80,PALMIRA,PUERTO LIBERTADOR,CÓRDOBA,3215234188-3215232948,camupuertolibertador@hotmail.com,info@camupuertolibertador.gov.co,EDER JOHN SOTO CUADRADO,johneders@gmail.com,,3215232948,IVAN GONZALES,camupuertolibertador@hotmail.com,3105909906
2330000347,E.S.E. CENTRO DE SALUD DE COTORRA,812003726,E.S.E. CENTRO DE SALUD DE COTORRA,1,,CALLE 15 # 13-52,SANTA LUCIA ,COTORRA,CÓRDOBA,7675000-3117158881-3215459978,esecotorra@hotmail.com,,DIMA DAVID SAFAR  VAQUERO,esecotorra@hotmail.com,,7675000-3117158881-3215459978,ELIANA MENDOZA,esecotorra@hotmail.com,
2300100553,EMPRESA SOCIAL DEL ESTADO VIDASINU,812005726,EMPRESA SOCIAL DEL ESTADO VIDASINU,1,,CALLE 22 # 4W - 33,EL AMPARO,MONTERÍA,CÓRDOBA,"7848910 extenciones: 108,200, 202, 203",sistemas@esvidasinu.gob.co,,NAYIBE JULIO SIMANCA,gerencia@esevidasinu.gob.co,,7848910,NADER DE JESUS GARCIA RAMOS ,sistemas@esevidasinu.gob.co,
2300100553,CENTRO  DE SALUD RANCHO GRANDE,812005726,EMPRESA SOCIAL DEL ESTADO VIDASINU,1,,MZ 49 LT 1B,EL AMPARO,MONTERÍA,CÓRDOBA,7848910 EXT 108,sistemas@esvidasinu.gob.co,,NAYIBE JULIO SIMANCA,gerencia@esevidasinu.gob.co,,7848910,NADER DE JESUS GARCIA RAMOS ,sistemas@esevidasinu.gov.co,
2300100553,CENTRO  DE SALUD EL DORADO,812005726,EMPRESA SOCIAL DEL ESTADO VIDASINU,1,,CARRERA 18WW # 26-48,EL AMPARO,MONTERÍA,CÓRDOBA,7848910 EXT 108,sistemas@esvidasinu.gob.co,,NAYIBE JULIO SIMANCA,gerencia@esevidasinu.gob.co,,7848910,NADER DE JESUS GARCIA RAMOS ,sistemas@esevidasinu.gob.co,
4102000194,EMPRESA SOCIAL DEL ESTADO HOSPITAL MUNICIPAL DE ALGECIRAS,813001653,EMPRESA SOCIAL DEL ESTADO HOSPITAL MUNICIPAL DE ALGECIRAS,1,,CALLE 4 # 1-40 ,CIUDAD BARRANQUILLA ,ALGECIRAS,HUILA,8382895-3176584115,secretaria@esehospitalangeciras.com,,JOSE ALEXANDER MORENO CORDOBA,secretaria@esehospitalangecira.com,,8382895 -3176584115,HECTOR LEANDRO RENDON,secretaria@esehospitalangecira.com,8382895 3176584115
4100600410,E.S.E. HOSPITAL SAN FRANCISCO JAVIER DE ACEVEDO,813002497,E.S.E. HOSPITAL SAN FRANCISCO JAVIER DE ACEVEDO,1,,CARRERA 3 CALLE 9 ESQUINA,SICANDES,ACEVEDO,HUILA,8317415,hsanfraciscoj@yahoo.com,,MARCO AURELIO PUENTES,puentes.quesada@gmail.com,,3107721284,NATALIA FACUANDO,hsanfraciscoj@yahoo.com,
4188500319,ESE CENTRO DE SALUD LAURA PERDOMO DE GARCIA,813003431,E.S.E. CENTRO DE SALUD LAURA PERDOMO DE GARCIA DE YAGUARA,1,JORGE ENRIQUE CALDERON ROBLEDO,CARRERA 8 # 7 -29,LOS SAMANES,YAGUARÁ,HUILA,8383567 - 3114746903,eselauraperdomo@hotmail.com,,MARIA DE LOS ANGELES VILLEGAS MEJIA ,eselauraperdomo@hotmail.com,,8383567 - 3114746903,FERNANDO POLANIA ,eselauraperdomo@hotmail.com,8383567 - 3114746903
4179900530,ESE CENTRO DE SALUD MIGUEL BARRETO LOPEZ DE TELLO,813004018,ESE CENTRO DE SALUD MIGUEL BARRETO LOPEZ DE TELLO,1,DANY LUZ PERDOMO FARFAN,CARRERA 6 # 4-56,CENTRO,TELLO,HUILA,8488002-8488283,hospital@tello-huila.gov.co, esetellombl@yahoo.es,MONICA SANCHEZ FALLA,hospital@tello-huila.gov.co,,8488002,MARLO GIOVANY ROJAS,facturacion.esetello@hotmail.com,8488002
4131900362,E.S.E. HOSPITAL MUNICIPAL NUESTRA SEÑORA DE GUADALUPE,813007875,E.S.E. HOSPITAL MUNICIPAL NUESTRA SEÑORA DE GUADALUPE,1,HUMBERTO EDUARDO GOMEZ CABRERA,CALLE 4 # 9-61,AV CERVANTES,GUADALUPE,HUILA,8321052,eseguadalupe@gmail.com,,SAUL MONTERO GARCIA,salmont65@gmail.com,,3102233232,YURI ALEXANDRA BERMEO,eseguadalupe@gmail.com,3133849869
4137800382,ESE JUAN RAMON NUÑEZ PALACIOS,813010966,ESE JUAN RAMON NUÑEZ PALACIOS,1,ALBERTO GIRALDO CAICEDO,CALLE  7A # 4-90,CENTRO,LA ARGENTINA,HUILA,8311863-8311607-3133970996,hospitalargentina@yahoo.es,,LEIDY ANDREA ORTIGOSA JABELA,leidyandrea_oj@hotmail.com,,3133973062,WILSON FABIAN ACOSTA ,hospitalargentina@yahoo.es,3133970996
4135900424,ESE HOSPITAL SAN JOSE DE ISNOS,813010996,ESE HOSPITAL SAN JOSE DE ISNOS,1,OWALDO IBARRA MUÑOZ,CARERA # 2-400 SUR  VIA PITALITO ,VIA PITALITO,ISNOS,HUILA,3152599961,"SERETARIA@ESEISNOS.GOV.CO

",GERENCIA@ESEISNOS.GOV.CO,RUTH MILDRED PUENTES MONTENEGRO,GERENCIA@ESEISNOS.GOV.CO,,3152599961,DIVAR MUÑOZ,SOPORTESISTEMAS@SISNOS.GOV.CO,3142824429
4148300388,ESE HOSPITAL LUIS ANTONIO MOJICA,813011465,ESE HOSPITAL LUIS ANTONIO MOJICA,1,JORGE ELIECER GORDILLO MESA,CALLE 3 # 8 - 19,DIVINO NIÑO,NÁTAGA,HUILA,3204371842,ESE_LUIS_ANTONIO_MOJICA@YAHOO.COM.CO,,AURA ESTELA MEDINA,ESE_LUIS_ANTONIO_MOJICA@YAHOO.COM.CO,,3204371842,,,
4124400452,HOSPITAL MUNICIPAL SAN FRANCISCO DE ASIS DE ELIAS EMPRESA SOCIAL DEL ESTADO E.S.E.,813011502,HOSPITAL MUNICIPAL SAN FRANCISCO DE ASIS DE ELIAS EMPRESA SOCIAL DEL ESTADO E.S.E.,1,MARCO ANTONIO VARGAS SALAS,CALLE 1 A # 6-71,CENTRO,ELÍAS,HUILA,3183348513,esesanfranciscoelias@hotmail.com,,YULI PAOLA GONZALEZ DUQUE,taopaodu45@hotmail.com,,3108545434,YULI PAOLA GONZALEZ DUQUE,taopaodu45@hotmail.com,3183348513
4153000481,EMPRESA SOCIAL DEL ESTADO CAMILO TRUJILLO SILVA,813011505,EMPRESA SOCIAL DEL ESTADO CAMILO TRUJILLO SILVA,1,,CARRERA 8 # 3-13,EL LAGO,PALESTINA,HUILA,8315621,gerencia@esestspalestinahuila.gov.co,,MARTHA ROCIO CUBILLO ,gerencia@esestspalestinahuila.gov.co,,8315621 EXT 101-112,GUSTAVO COY,estadistica@esectspalestinahuila.gov.co,
4153000481,EMPRESA SOCIAL DEL ESTADO CAMILO TRUJILLO SILVA,813011505,EMPRESA SOCIAL DEL ESTADO CAMILO TRUJILLO SILVA,1,,CARRERA 8 # 3-13,LA FLORESTA,PALESTINA,HUILA,8315621,gerencia@esectspalestinahuila.gov.co,,MARTHA ROCIO TORRES ,gerencia@esectspalestinahuila.gov.co,,8315621 EXT 101,GUSTAVO COY,estadistica@esectspalestinahuila.gov.co,
4134900484,ESE HOSPITAL LOCAL MUNICIPAL,813011515,ESE HOSPITAL LOCAL MUNICIPAL,1,,CALLE 6 # 9-47,SAN PEDRO,HOBO,HUILA,8384053-8384391,esehospitalhobo@yahoo.es,,YINA PAOLA FRANCO,esehospitalhobo@yahoo.es,,8384053-8384391,JHONATAN BAUTISTA,esehospitalhobo@yahoo.es,8384053-8384391
5232301390,CENTRO DE SALUD SEÑOR DE LOS MILAGROS DE GUALMATÁN - EMPRESA SOCIAL DEL ESTADO - E.S.E.,814001594,CENTRO DE SALUD SEÑOR DE LOS MILAGROS DE GUALMATÁN - EMPRESA SOCIAL DEL ESTADO - E.S.E.,1,,CARRERA 5 CON CALLE 8 GUALMATÁN,JOSE MARIA HERNANDEZ,GUALMATÁN,NARIÑO,7790136,esegualmatan@hotmail.com,,LICETH DE PILAR CANDO INVACUAR,lissc124@gmail.com,,3128340475,JLIE  MAGALI HUERTAS ,juliethamhu@gmail.com,
5257300562,CENTRO HOSPITAL NUESTRO SEÑOR DE LA DIVINA MISERICORDIA PUERRES E.S.E.,814003370,CENTRO HOSPITAL NUESTRO SEÑOR DE LA DIVINA MISERICORDIA PUERRES E.S.E.,1,OSCAR IVAN DORADO R.,CARRERA 4 BARRIO LA CRUZ,LA CRUZ,PUERRES,NARIÑO,7422187-3148933276-3128162290,esepuerres1@gmail.com alba-lucia-mora2007@hotmail.com,,ALBA LUCIA MORA BENAVIDES,alba-lucia-mora2007@hotmail.com,,3176487799,JAIRO VALLEJO,jairo981@hotmail.com,3023386551
5231700077,IPS-I ASOCIACION DE CABILDOS DE GUACHUCAL Y COLIMBA,814005647,IPS-I ASOCIACION DE CABILDOS DE GUACHUCAL Y COLIMBA,1,,"Sector ""EL CONSUELO"" Via a Túquerres",,GUACHUCAL,NARIÑO,27778068-3177247384,ipsguachucalycolimba@gmail.com,,ALBERTO ALONSO DELGADO,ipsguachucalycolimba@gmail.com,,27778068,YEISON YAMIT ENRIQUEZ,ipsguachucalycolimba@gmail.com,
6600100332,HOSPITAL SAN JOAQUIN,816005003,EMPRESA SOCIAL DEL ESTADO SALUD PEREIRA,1,,CARRERA 7 #40-34 PISO 2,CENTRO,PEREIRA,RISARALDA,3116733 EXT102,correoese@saludpereira.gov.co,,ALBERTH CRISTIAN HERRERA GIRALDO,correoese@saludpereira.gov.co,,3116733 EXT 102,ELVA LILIANA AGUDELO LOPEZ,coordinador.sistemas@saludpereira.gov.co,
6600100332,EMPRESA SOCIAL DEL ESTADO SALUD PEREIRA,816005003,EMPRESA SOCIAL DEL ESTADO SALUD PEREIRA,1,,CARRERA 12 CALLE 9 PLAZUELA ESTADIO MORA MORA,KENNEDY ,PEREIRA,RISARALDA,3116733,gerencia@saludpereira.gov.co ,,ALBER CRISTIAN HERRERA GIRALDO ,gerenciaesefp@gmail.com,,3116733,LILIANA AGUDELO ,coordinador.sistemas@saludpereira.gov.co,3116733
1935508300,IPS INDIGENA JUAN TAMA,817000102,IPS INDIGENA JUAN TAMA,0,,CARRERA 5 # 5A-75,SANTANDER,INZÁ,CAUCA,3137831000 - 3104709652,ipsijuantama@gmail.com,,NOREIDY ASTRID SANCHEZ ROJAS,juantamaa@gmail.com,,3122408676,RAFAEL ENRIQUE PERDOMO,ipsijuantama@gmail.com,
1969800025,ASOCIACIÓN DE CABILDOS INDÍGENAS DEL NORTE DEL CAUCA  SALUD-ACIN.  ENTIDAD PUBLICA DE CARÁCTER ESPECIAL.,817000232,Asociación de Cabildos Indígenas del Norte del Cauca SALUD-ACIN. Entidad Publica de carácter especial.,1,,CARRERA 7 # 6 - 22,,SANTANDER DE QUILICHAO,CAUCA,8443099 EXT 158- 8442044 ,acinsecretaria@acincwk.org,,ROSALBA VELASCO,representantelegal@acincwk.org,,3178379225,LARRY PEÑA,sistemas@acincwk.org ,
1900106571,CONSEJO REGIONAL INDÍGENA DEL CAUCA,817002466,CONSEJO REGIONAL INDÌGENA DEL CAUCA,1,,CARRERA 4 # 1 - 06 ,PASAJE VASQUES COBO ,POPAYÁN,CAUCA,8240343,cric@cric-colombia.org,,NEYSON   LIBERIO LAME ,cric@cric-colombia.org,,8240343,NEYSON   LIBERIO LAME ,cric@cric-colombia.org,8240343
2700100026,ESE HOSPITAL LOCAL ISMAEL ROLDAN VALENCIA,818001019,ESE HOSPITAL LOCAL ISMAEL ROLDAN VALENCIA,1,JACK